<?xml version="1.0" encoding="UTF-8"?>
<gpx xmlns="http://www.topografix.com/GPX/1/1" xmlns:xsi="http://www.w3.org/2001/XMLSchema-instance" xsi:schemaLocation="http://www.topografix.com/GPX/1/1 http://www.topografix.com/GPX/1/1/gpx.xsd" version="1.1" creator="gpx.py -- https://github.com/tkrajina/gpxpy">
  <metadata>
    <name>Stargazing locations</name>
  </metadata>
  <wpt lat="22.28317959363631" lon="104.01845649318176">
    <ele>477.9648585058563</ele>
    <name>Night 1 · km 62</name>
    <desc>stargazing score 0.63</desc>
  </wpt>
  <wpt lat="22.261619" lon="104.02242530882123">
    <ele>873.0790688801532</ele>
    <name>Night 1 · km 66</name>
    <desc>stargazing score 0.85</desc>
  </wpt>
  <wpt lat="22.250688668520667" lon="104.012081657326">
    <ele>807.095726889882</ele>
    <name>Night 1 · km 70</name>
    <desc>stargazing score 0.85</desc>
  </wpt>
  <wpt lat="22.264218291068797" lon="103.97999563237634">
    <ele>604.0024460824845</ele>
    <name>Night 1 · km 82</name>
    <desc>stargazing score 0.61</desc>
  </wpt>
  <wpt lat="22.27745810147171" lon="103.9640634628782">
    <ele>970.4843159602817</ele>
    <name>Night 1 · km 86</name>
    <desc>stargazing score 0.77</desc>
  </wpt>
  <wpt lat="22.280711759660498" lon="103.92423935269122">
    <ele>972.6075081664745</ele>
    <name>Night 1 · km 92</name>
    <desc>stargazing score 0.68</desc>
  </wpt>
  <wpt lat="22.29927404648556" lon="103.89335012701501">
    <ele>1036.728363497759</ele>
    <name>Night 1 · km 97</name>
    <desc>stargazing score 0.72</desc>
  </wpt>
  <wpt lat="22.292713788151957" lon="103.93274473478277">
    <ele>1280.0752752496671</ele>
    <name>Night 2 · km 154</name>
    <desc>stargazing score 0.74</desc>
  </wpt>
</gpx>